OBJECT_NAME,OBJECT_ID,EPOCH,MEAN_MOTION,ECCENTRICITY,INCLINATION,RA_OF_ASC_NODE,ARG_OF_PERICENTER,MEAN_ANOMALY,EPHEMERIS_TYPE,CLASSIFICATION_TYPE,NORAD_CAT_ID,ELEMENT_SET_NO,REV_AT_EPOCH,BSTAR,MEAN_MOTION_DOT,MEAN_MOTION_DDOT
LEMUR-2-ARIANNA,2025-009CU,2026-06-08T03:59:53.859840,15.02348675,.00032083,97.6881,240.6226,143.4513,216.6931,0,U,62699,999,7620,.56077946E-3,.736E-4,0
LEMUR-2-ALISIA,2025-009DB,2026-06-08T05:06:27.866592,15.02641592,.00009253,97.6965,241.4438,188.9782,171.1426,0,U,62706,999,9881,.52735523E-3,.6971E-4,0
LEMUR-2-ROUNDTRIPPER,2025-009DG,2026-06-08T04:14:47.582304,15.03638916,.00043315,97.7243,241.8695,160.9148,199.2240,0,U,62711,999,7627,.60279447E-3,.8193E-4,0
LEMUR-2-MYNAMEISJEFF,2025-009DH,2026-06-08T04:12:35.911296,15.03654372,.00026119,97.7290,242.2435,188.9258,171.1921,0,U,62712,999,7627,.58983935E-3,.8018E-4,0
LEMUR-2-LEIA-PHILIP,2025-052AN,2026-06-08T04:21:26.790912,14.97291118,.00020542,97.6847,51.2835,249.4491,110.6511,0,U,63246,999,6732,.19543746E-3,.2208E-4,0
LEMUR-2-LIA-MARTIN,2025-052AQ,2026-06-08T04:32:43.622592,14.97729261,.00023119,97.6908,51.7525,172.4461,187.6796,0,U,63248,999,6733,.44779925E-3,.5194E-4,0
LEMUR-2-DELOITTE-1,2025-052BB,2026-06-08T05:33:12.195360,14.97534980,.00024472,97.6919,52.1231,115.0194,245.1283,0,U,63259,999,6735,.32207409E-3,.37E-4,0
LEMUR-2-EMERSONROSE,2025-052BD,2026-06-08T05:10:11.157024,14.99020138,.00024716,97.6905,52.6491,71.0664,289.0826,0,U,63261,999,6739,.26647203E-3,.3172E-4,0
LEMUR-2-MARACHE-FRAN,2025-052BE,2026-06-07T15:54:51.011424,15.00001972,.00062305,97.6945,52.3995,53.6661,306.5137,0,U,63262,999,6733,.57580695E-3,.7107E-4,0
LEMUR-2-THEFALCONER,2025-052BG,2026-06-07T10:54:38.642688,14.97324847,.00035925,97.6876,50.9885,61.6588,298.4996,0,U,63264,999,6723,.45411588E-3,.5213E-4,0
LEMUR-2-UNTITLED-SC,2025-061A,2026-06-08T03:54:42.943392,15.13409013,.00171416,97.5632,134.5910,299.0915,60.8600,0,U,63351,999,6622,.19440769E-3,.3416E-4,0
LEMUR-2-ESPERANZA,2025-061B,2026-06-08T04:57:47.873376,15.13504244,.00167593,97.5640,134.7261,298.3446,61.6095,0,U,63352,999,6623,.21998306E-3,.3884E-4,0
LEMUR-2-KREMPEL-BRO2,2025-061C,2026-06-08T04:05:10.951296,15.13937260,.00175326,97.5686,135.2115,290.0165,69.9179,0,U,63353,999,6624,.19103177E-3,.3406E-4,0
LEMUR-2-THERMORAPTOR,2025-061D,2026-06-07T11:48:19.237248,15.14011469,.00173076,97.5692,134.6110,291.4891,68.4494,0,U,63354,999,6614,.26728749E-3,.4804E-4,0
LEMUR-2-NEUROSPICY,2025-061E,2026-06-07T22:14:44.319840,15.14130797,.00150768,97.5618,134.6770,294.2338,65.7317,0,U,63355,999,6621,.24563511E-3,.442E-4,0
LEMUR-2-TILLINFINITY,2025-061F,2026-06-07T21:35:32.382240,15.14716168,.00162393,97.5604,134.9339,280.9054,79.0350,0,U,63356,999,6623,.23430333E-3,.4285E-4,0
LEMUR-2-KREMPEL-BRO1,2025-061G,2026-06-08T04:51:19.261728,15.14523472,.0016903,97.5606,135.1535,281.0590,78.8741,0,U,63357,999,6627,.21671721E-3,.3938E-4,0
LEMUR-2-LANGER2SPACE,2025-061H,2026-06-07T21:31:06.682368,15.14218500,.00149949,97.5610,134.6671,292.4182,67.5461,0,U,63358,999,6621,.24101846E-3,.4346E-4,0
LEMUR-2-BALTO,2025-052BH,2026-06-08T04:21:06.689088,14.99988078,.00066389,97.6879,52.8969,80.5057,279.6917,0,U,63395,999,6741,.42905183E-3,.5278E-4,0
LEMUR-2-KRISH,2025-135AK,2026-06-08T07:31:00.714144,14.96121854,.00012098,97.7724,274.2526,107.4283,252.7071,0,U,64561,999,5259,.40486787E-3,.4498E-4,0
LEMUR-2-HUBBLE-4,2025-135AP,2026-06-08T05:22:10.689312,14.93172589,.00016338,97.7689,273.2393,357.8755,2.2457,0,U,64565,999,5253,.1372625E-3,.1376E-4,0
LEMUR-2-SEJONG-2,2025-135BL,2026-06-08T05:05:53.799072,14.96629855,.00045727,97.7684,274.2962,19.2476,340.8917,0,U,64586,999,5260,.40942164E-3,.461E-4,0
LEMUR-2-HUBBLE-5,2025-135BT,2026-06-08T07:37:01.088544,14.94107856,.00057965,97.7709,273.9510,23.1887,336.9593,0,U,64840,999,5258,.16708677E-3,.1729E-4,0
LEMUR-2-KARENDARRELL,2025-135BU,2026-06-08T07:30:40.837824,14.99981807,.00091242,97.7668,275.5377,236.7119,123.3231,0,U,64841,999,5268,.53582291E-3,.6608E-4,0
LEMUR-2-LUCILLE-ROSE,2025-135BV,2026-06-08T05:17:13.836192,15.00039695,.00106794,97.7770,275.4534,318.0498,41.9906,0,U,65403,999,4729,.50858638E-3,.628E-4,0
LEMUR-2-AFFIE-WAUWIE,2025-248C,2026-06-07T07:23:30.971040,15.26866519,.0008835,45.3866,168.5000,20.2835,339.8404,0,U,66295,999,3308,.52119E-3,.13749E-3,0
LEMUR-2-DEANANDMAEVE,2025-276N,2026-06-08T03:53:32.014176,15.19620066,.00065158,97.4208,232.7884,43.4087,316.7660,0,U,66678,999,2904,.28645899E-3,.6038E-4,0
LEMUR-2-STAS-GORBUK,2025-276W,2026-06-08T04:11:28.558176,15.19284214,.00060121,97.4244,232.8563,43.8432,316.3278,0,U,66686,999,2904,.24098092E-3,.5018E-4,0
LEMUR-2-TEODOR,2025-276DG,2026-06-08T04:02:19.901760,15.20951389,.0001831,97.4147,233.0751,123.5597,236.5814,0,U,66768,999,2907,.24487719E-3,.5354E-4,0
